{
  "norad_id": 55361,
  "name": "STARLINK-5665",
  "history": [
    {
      "epoch": "2026-03-28T22:00:01.999584Z",
      "apogee_km": 484.11120596400724,
      "perigee_km": 481.9204398676502,
      "latitude_deg": 32.2283898839846,
      "longitude_deg": 65.9152859610314,
      "height_km": 484.73466146513783,
      "semi_major_axis_km": 6861.152822915828,
      "eccentricity": 0.00015965,
      "inclination_deg": 43.001,
      "raan_deg": 180.0098,
      "arg_perigee_deg": 276.6154,
      "mean_anomaly_deg": 134.5679,
      "mean_motion_rev_day": 15.27591112
    },
    {
      "epoch": "2026-03-29T04:00:01.999584Z",
      "apogee_km": 484.13890460545645,
      "perigee_km": 482.1354125511525,
      "latitude_deg": -8.49244751288795,
      "longitude_deg": -77.14975621842665,
      "height_km": 484.1301302002217,
      "semi_major_axis_km": 6861.274158578304,
      "eccentricity": 0.000146,
      "inclination_deg": 43.0009,
      "raan_deg": 178.5976,
      "arg_perigee_deg": 273.5122,
      "mean_anomaly_deg": 74.1232,
      "mean_motion_rev_day": 15.27550591
    },
    {
      "epoch": "2026-03-30T04:00:01.999584Z",
      "apogee_km": 484.1973680279143,
      "perigee_km": 482.08272244257296,
      "latitude_deg": 43.06736497736754,
      "longitude_deg": 19.97469570445955,
      "height_km": 487.3255294365761,
      "semi_major_axis_km": 6861.277045235243,
      "eccentricity": 0.0001541,
      "inclination_deg": 43.0011,
      "raan_deg": 172.9502,
      "arg_perigee_deg": 268.6086,
      "mean_anomaly_deg": 184.7533,
      "mean_motion_rev_day": 15.27549627
    },
    {
      "epoch": "2026-03-30T06:00:02.000160Z",
      "apogee_km": 484.183567850132,
      "perigee_km": 482.00979179569003,
      "latitude_deg": -8.354974037354907,
      "longitude_deg": 83.83813588769922,
      "height_km": 484.12040343619947,
      "semi_major_axis_km": 6861.233679822911,
      "eccentricity": 0.00015841,
      "inclination_deg": 43.0012,
      "raan_deg": 172.4804,
      "arg_perigee_deg": 270.8538,
      "mean_anomaly_deg": 281.3094,
      "mean_motion_rev_day": 15.27564109
    },
    {
      "epoch": "2026-03-30T14:00:03.000384Z",
      "apogee_km": 484.2194633795234,
      "perigee_km": 482.0722935155418,
      "latitude_deg": -30.339851472827135,
      "longitude_deg": -8.765847460676047,
      "height_km": 490.6898445229642,
      "semi_major_axis_km": 6861.282878447532,
      "eccentricity": 0.00015647,
      "inclination_deg": 43.0014,
      "raan_deg": 170.6,
      "arg_perigee_deg": 283.088,
      "mean_anomaly_deg": 304.3832,
      "mean_motion_rev_day": 15.27547679
    },
    {
      "epoch": "2026-03-30T22:00:00.999936Z",
      "apogee_km": 484.0396225107079,
      "perigee_km": 482.01461853217825,
      "latitude_deg": -42.71424276624563,
      "longitude_deg": -89.67958872901805,
      "height_km": 495.2104190304764,
      "semi_major_axis_km": 6861.164120521443,
      "eccentricity": 0.00014757,
      "inclination_deg": 43.0014,
      "raan_deg": 168.7147,
      "arg_perigee_deg": 276.59,
      "mean_anomaly_deg": 345.9862,
      "mean_motion_rev_day": 15.27587339
    },
    {
      "epoch": "2026-03-31T14:07:04.563264Z",
      "apogee_km": 484.2944950098199,
      "perigee_km": 481.82858025539554,
      "latitude_deg": 1.9883740954297075e-06,
      "longitude_deg": 124.19001715809027,
      "height_km": 482.7008608734062,
      "semi_major_axis_km": 6861.198537632607,
      "eccentricity": 0.0001797,
      "inclination_deg": 43.002,
      "raan_deg": 164.9225,
      "arg_perigee_deg": 276.4231,
      "mean_anomaly_deg": 83.6416,
      "mean_motion_rev_day": 15.27575845
    },
    {
      "epoch": "2026-04-01T04:14:29.092704Z",
      "apogee_km": 484.0075717576401,
      "perigee_km": 482.11250913506774,
      "latitude_deg": 2.3297965616693117e-06,
      "longitude_deg": -91.56701841140013,
      "height_km": 482.7540231756603,
      "semi_major_axis_km": 6861.197040446354,
      "eccentricity": 0.0001381,
      "inclination_deg": 43.002,
      "raan_deg": 161.5977,
      "arg_perigee_deg": 275.0213,
      "mean_anomaly_deg": 85.0481,
      "mean_motion_rev_day": 15.27576345
    }
  ]
}